OBJECT C                
1 57582U 23117C   24291.17346982  .00014002  00000+0  66487-3 0  9999
2 57582  97.4752   1.7428 0009348 223.0534 136.9970 15.19316035 65682
